start=new Date('2023-05-10T00:00:00.000Z').valueOf();
sats=[{"APOAPSIS":"540.442","MEAN_MOTION_DDOT":"0.0000000000000","ARG_OF_PERICENTER":"87.4381","REV_AT_EPOCH":"2383","DECAY_DATE":null,"SITE":"AFETR","NORAD_CAT_ID":"54810","COUNTRY_CODE":"US","RA_OF_ASC_NODE":"353.9362","MEAN_MOTION":"15.08850310","REF_FRAME":"TEME","GP_ID":"231476697","TLE_LINE1":"1 54810U 22175BE  23128.93391524 -.00000090  00000-0  12404-4 0  9992","OBJECT_NAME":"STARLINK-5408","LAUNCH_DATE":"2022-12-17","PERIOD":"95.437","EPOCH":"2023-05-08T22:24:50.276736","FILE":"3904305","ECCENTRICITY":"0.00010530","OBJECT_ID":"2022-175BE","EPHEMERIS_TYPE":"0","PERIAPSIS":"538.985","TLE_LINE2":"2 54810  53.2184 353.9362 0001053  87.4381 272.6732 15.08850310 23830","INCLINATION":"53.2184","CLASSIFICATION_TYPE":"U","ELEMENT_SET_NO":"999","OBJECT_TYPE":"PAYLOAD","MEAN_MOTION_DOT":"-0.00000090","SEMIMAJOR_AXIS":"6917.849","MEAN_ANOMALY":"272.6732","RCS_SIZE":"LARGE","CENTER_NAME":"EARTH","MEAN_ELEMENT_THEORY":"SGP4","BSTAR":"0.00001240400000","TIME_SYSTEM":"UTC"},{"ELEMENT_SET_NO":"999","INCLINATION":"53.2172","CLASSIFICATION_TYPE":"U","TLE_LINE2":"2 54811  53.2172 353.4272 0001251  82.1691 277.9443 15.08860077 23848","PERIAPSIS":"538.819","OBJECT_TYPE":"PAYLOAD","FILE":"3904553","ECCENTRICITY":"0.00012510","OBJECT_ID":"2022-175BF","EPHEMERIS_TYPE":"0","RCS_SIZE":"LARGE","TIME_SYSTEM":"UTC","BSTAR":"0.00050270000000","MEAN_ELEMENT_THEORY":"SGP4","CENTER_NAME":"EARTH","SEMIMAJOR_AXIS":"6917.819","MEAN_MOTION_DOT":"0.00007726","MEAN_ANOMALY":"277.9443","COUNTRY_CODE":"US","RA_OF_ASC_NODE":"353.4272","NORAD_CAT_ID":"54811","REF_FRAME":"TEME","MEAN_MOTION":"15.08860077","MEAN_MOTION_DDOT":"0.0000000000000","APOAPSIS":"540.549","SITE":"AFETR","REV_AT_EPOCH":"2384","DECAY_DATE":null,"ARG_OF_PERICENTER":"82.1691","LAUNCH_DATE":"2022-12-17","EPOCH":"2023-05-08T23:11:05.462016","PERIOD":"95.436","TLE_LINE1":"1 54811U 22175BF  23128.96603544  .00007726  00000-0  50270-3 0  9998","GP_ID":"231509718","OBJECT_NAME":"STARLINK-5424"},{"MEAN_MOTION_DDOT":"0.0000000000000","APOAPSIS":"560.269","SITE":"AFETR","REV_AT_EPOCH":"2123","DECAY_DATE":null,"ARG_OF_PERICENTER":"262.7483","COUNTRY_CODE":"US","RA_OF_ASC_NODE":"358.5053","NORAD_CAT_ID":"54820","REF_FRAME":"TEME","MEAN_MOTION":"15.02536480","GP_ID":"231509467","TLE_LINE1":"1 54820U 22177A   23129.50648872  .00002453  00000-0  19660-3 0  9994","OBJECT_NAME":"STARLINK-5382","LAUNCH_DATE":"2022-12-28","EPOCH":"2023-05-09T12:09:20.625408","PERIOD":"95.838","FILE":"3904553","ECCENTRICITY":"0.00017140","OBJECT_ID":"2022-177A","EPHEMERIS_TYPE":"0","ELEMENT_SET_NO":"999","CLASSIFICATION_TYPE":"U","INCLINATION":"43.0054","TLE_LINE2":"2 54820  43.0054 358.5053 0001714 262.7483  97.3165 15.02536480 21234","PERIAPSIS":"557.891","OBJECT_TYPE":"PAYLOAD","SEMIMAJOR_AXIS":"6937.215","MEAN_MOTION_DOT":"0.00002453","MEAN_ANOMALY":"97.3165","RCS_SIZE":"LARGE","TIME_SYSTEM":"UTC","BSTAR":"0.00019660000000","MEAN_ELEMENT_THEORY":"SGP4","CENTER_NAME":"EARTH"},{"MEAN_MOTION_DDOT":"0.0000000000000","APOAPSIS":"560.254","ARG_OF_PERICENTER":"279.4924","SITE":"AFETR","DECAY_DATE":null,"REV_AT_EPOCH":"2123","NORAD_CAT_ID":"54821","RA_OF_ASC_NODE":"358.4904","COUNTRY_CODE":"US","REF_FRAME":"TEME","MEAN_MOTION":"15.02547840","GP_ID":"231509218","TLE_LINE1":"1 54821U 22177B   23129.50426768  .00003789  00000-0  29532-3 0  9995","OBJECT_NAME":"STARLINK-5385","LAUNCH_DATE":"2022-12-28","EPOCH":"2023-05-09T12:06:08.727552","PERIOD":"95.837","ECCENTRICITY":"0.00017430","FILE":"3904553","OBJECT_ID":"2022-177B","EPHEMERIS_TYPE":"0","TLE_LINE2":"2 54821  43.0042 358.4904 0001743 279.4924  80.5721 15.02547840 21237","PERIAPSIS":"557.836","ELEMENT_SET_NO":"999","INCLINATION":"43.0042","CLASSIFICATION_TYPE":"U","OBJECT_TYPE":"PAYLOAD","MEAN_MOTION_DOT":"0.00003789","SEMIMAJOR_AXIS":"6937.180","MEAN_ANOMALY":"80.5721","RCS_SIZE":"LARGE","CENTER_NAME":"EARTH","TIME_SYSTEM":"UTC","BSTAR":"0.00029532000000","MEAN_ELEMENT_THEORY":"SGP4"},{"MEAN_ANOMALY":"92.6468","MEAN_MOTION_DOT":"0.00002377","SEMIMAJOR_AXIS":"6937.207","CENTER_NAME":"EARTH","MEAN_ELEMENT_THEORY":"SGP4","BSTAR":"0.00019098000000","TIME_SYSTEM":"UTC","RCS_SIZE":"LARGE","EPHEMERIS_TYPE":"0","FILE":"3904553","OBJECT_ID":"2022-177C","ECCENTRICITY":"0.00016170","OBJECT_TYPE":"PAYLOAD","PERIAPSIS":"557.950","TLE_LINE2":"2 54822  43.0053 358.3726 0001617 267.4189  92.6468 15.02539137 21233","CLASSIFICATION_TYPE":"U","INCLINATION":"43.0053","ELEMENT_SET_NO":"999","OBJECT_NAME":"STARLINK-5101","TLE_LINE1":"1 54822U 22177C   23129.48872667  .00002377  00000-0  19098-3 0  9994","GP_ID":"231510470","PERIOD":"95.838","EPOCH":"2023-05-09T11:43:45.984288","LAUNCH_DATE":"2022-12-28","ARG_OF_PERICENTER":"267.4189","DECAY_DATE":null,"REV_AT_EPOCH":"2123","SITE":"AFETR","MEAN_MOTION_DDOT":"0.0000000000000","APOAPSIS":"560.194","MEAN_MOTION":"15.02539137","REF_FRAME":"TEME","NORAD_CAT_ID":"54822","COUNTRY_CODE":"US","RA_OF_ASC_NODE":"358.3726"},{"PERIOD":"95.838","EPOCH":"2023-05-09T12:02:56.935104","LAUNCH_DATE":"2022-12-28","OBJECT_NAME":"STARLINK-5106","TLE_LINE1":"1 54823U 22177D   23129.50204786  .00002232  00000-0  18022-3 0  9995","GP_ID":"231510207","MEAN_MOTION":"15.02537832","REF_FRAME":"TEME","COUNTRY_CODE":"US","RA_OF_ASC_NODE":"358.4728","NORAD_CAT_ID":"54823","DECAY_DATE":null,"REV_AT_EPOCH":"2123","SITE":"AFETR","ARG_OF_PERICENTER":"267.9222","MEAN_MOTION_DDOT":"0.0000000000000","APOAPSIS":"560.250","MEAN_ELEMENT_THEORY":"SGP4","TIME_SYSTEM":"UTC","BSTAR":"0.00018022000000","CENTER_NAME":"EARTH","RCS_SIZE":"LARGE","MEAN_ANOMALY":"92.1426","SEMIMAJOR_AXIS":"6937.211","MEAN_MOTION_DOT":"0.00002232","OBJECT_TYPE":"PAYLOAD","INCLINATION":"43.0055","CLASSIFICATION_TYPE":"U","ELEMENT_SET_NO":"999","PERIAPSIS":"557.901","TLE_LINE2":"2 54823  43.0055 358.4728 0001693 267.9222  92.1426 15.02537832 21235","EPHEMERIS_TYPE":"0","OBJECT_ID":"2022-177D","FILE":"3904553","ECCENTRICITY":"0.00016930"},{"RCS_SIZE":"LARGE","MEAN_ELEMENT_THEORY":"SGP4","TIME_SYSTEM":"UTC","BSTAR":"0.00086586000000","CENTER_NAME":"EARTH","SEMIMAJOR_AXIS":"6937.156","MEAN_MOTION_DOT":"0.00011518","MEAN_ANOMALY":"92.1263","INCLINATION":"43.0044","CLASSIFICATION_TYPE":"U","ELEMENT_SET_NO":"999","PERIAPSIS":"557.865","TLE_LINE2":"2 54824  43.0044   0.9753 0001667 267.9388  92.1263 15.02555555 21168","OBJECT_TYPE":"PAYLOAD","OBJECT_ID":"2022-177E","FILE":"3904553","ECCENTRICITY":"0.00016670","EPHEMERIS_TYPE":"0","LAUNCH_DATE":"2022-12-28","PERIOD":"95.837","EPOCH":"2023-05-09T00:48:03.273408","GP_ID":"231508967","TLE_LINE1":"1 54824U 22177E   23129.03337122  .00011518  00000-0  86586-3 0  9992","OBJECT_NAME":"STARLINK-4643","COUNTRY_CODE":"US","RA_OF_ASC_NODE":"0.9753","NORAD_CAT_ID":"54824","MEAN_MOTION":"15.02555555","REF_FRAME":"TEME","MEAN_MOTION_DDOT":"0.0000000000000","APOAPSIS":"560.178","DECAY_DATE":null,"REV_AT_EPOCH":"2116","SITE":"AFETR","ARG_OF_PERICENTER":"267.9388"},{"OBJECT_TYPE":"PAYLOAD","TLE_LINE2":"2 54825  43.0057 358.0455 0001414 274.7939  85.2742 15.02538827 21244","PERIAPSIS":"558.092","ELEMENT_SET_NO":"999","INCLINATION":"43.0057","CLASSIFICATION_TYPE":"U","EPHEMERIS_TYPE":"0","OBJECT_ID":"2022-177F","FILE":"3904553","ECCENTRICITY":"0.00014140","CENTER_NAME":"EARTH","TIME_SYSTEM":"UTC","BSTAR":"0.00004535700000","MEAN_ELEMENT_THEORY":"SGP4","RCS_SIZE":"LARGE","MEAN_ANOMALY":"85.2742","MEAN_MOTION_DOT":"0.00000409","SEMIMAJOR_AXIS":"6937.208","REF_FRAME":"TEME","MEAN_MOTION":"15.02538827","NORAD_CAT_ID":"54825","COUNTRY_CODE":"US","RA_OF_ASC_NODE":"358.0455","ARG_OF_PERICENTER":"274.7939","SITE":"AFETR","REV_AT_EPOCH":"2124","DECAY_DATE":null,"MEAN_MOTION_DDOT":"0.0000000000000","APOAPSIS":"560.054","EPOCH":"2023-05-09T13:25:53.689152","PERIOD":"95.838","LAUNCH_DATE":"2022-12-28","OBJECT_NAME":"STARLINK-4801","GP_ID":"231509719","TLE_LINE1":"1 54825U 22177F   23129.55964918  .00000409  00000-0  45357-4 0  9998"},{"SEMIMAJOR_AXIS":"6937.206","MEAN_MOTION_DOT":"0.00002351","MEAN_ANOMALY":"97.2327","RCS_SIZE":"LARGE","MEAN_ELEMENT_THEORY":"SGP4","TIME_SYSTEM":"UTC","BSTAR":"0.00018903000000","CENTER_NAME":"EARTH","FILE":"3904542","OBJECT_ID":"2022-177G","ECCENTRICITY":"0.00016060","EPHEMERIS_TYPE":"0","CLASSIFICATION_TYPE":"U","INCLINATION":"43.0055","ELEMENT_SET_NO":"999","PERIAPSIS":"557.957","TLE_LINE2":"2 54826  43.0055 358.3884 0001606 262.8333  97.2327 15.02539490 20250","OBJECT_TYPE":"PAYLOAD","TLE_LINE1":"1 54826U 22177G   23129.49094841  .00002351  00000-0  18903-3 0  9995","GP_ID":"231483862","OBJECT_NAME":"STARLINK-5107","LAUNCH_DATE":"2022-12-28","PERIOD":"95.838","EPOCH":"2023-05-09T11:46:57.942624","MEAN_MOTION_DDOT":"0.0000000000000","APOAPSIS":"560.185","DECAY_DATE":null,"REV_AT_EPOCH":"2025","SITE":"AFETR","ARG_OF_PERICENTER":"262.8333","RA_OF_ASC_NODE":"358.3884","COUNTRY_CODE":"US","NORAD_CAT_ID":"54826","MEAN_MOTION":"15.02539490","REF_FRAME":"TEME"},{"RCS_SIZE":"LARGE","CENTER_NAME":"EARTH","MEAN_ELEMENT_THEORY":"SGP4","TIME_SYSTEM":"UTC","BSTAR":"0.00053479000000","MEAN_MOTION_DOT":"0.00007030","SEMIMAJOR_AXIS":"6937.187","MEAN_ANOMALY":"82.0189","PERIAPSIS":"557.827","TLE_LINE2":"2 54827  43.0043 357.9693 0001765 278.0453  82.0189 15.02545630 21251","CLASSIFICATION_TYPE":"U","INCLINATION":"43.0043","ELEMENT_SET_NO":"999","OBJECT_TYPE":"PAYLOAD","ECCENTRICITY":"0.00017650","FILE":"3904553","OBJECT_ID":"2022-177H","EPHEMERIS_TYPE":"0","LAUNCH_DATE":"2022-12-28","PERIOD":"95.837","EPOCH":"2023-05-09T13:11:30.396768","GP_ID":"231510708","TLE_LINE1":"1 54827U 22177H   23129.54965737  .00007030  00000-0  53479-3 0  9999","OBJECT_NAME":"STARLINK-5383","NORAD_CAT_ID":"54827","COUNTRY_CODE":"US","RA_OF_ASC_NODE":"357.9693","MEAN_MOTION":"15.02545630","REF_FRAME":"TEME","APOAPSIS":"560.276","MEAN_MOTION_DDOT":"0.0000000000000","ARG_OF_PERICENTER":"278.0453","DECAY_DATE":null,"REV_AT_EPOCH":"2125","SITE":"AFETR"}];
